{
    "links": {
        "self": "http://www.neowsapp.com/rest/v1/neo/3550131?api_key=iIulBulltgU6a56xZRHN4H3l9WmuAYTsLGpBGhQ2"
    },
    "id": "3550131",
    "neo_reference_id": "3550131",
    "name": "(2010 VG)",
    "designation": "2010 VG",
    "nasa_jpl_url": "http://ssd.jpl.nasa.gov/sbdb.cgi?sstr=3550131",
    "absolute_magnitude_h": 23.9,
    "estimated_diameter": {
        "kilometers": {
            "estimated_diameter_min": 0.04411182,
            "estimated_diameter_max": 0.0986370281
        },
        "meters": {
            "estimated_diameter_min": 44.1118199997,
            "estimated_diameter_max": 98.6370281305
        },
        "miles": {
            "estimated_diameter_min": 0.0274098057,
            "estimated_diameter_max": 0.0612901888
        },
        "feet": {
            "estimated_diameter_min": 144.7238235278,
            "estimated_diameter_max": 323.6123073718
        }
    },
    "is_potentially_hazardous_asteroid": false,
    "close_approach_data": [
        {
            "close_approach_date": "2010-10-21",
            "close_approach_date_full": "2010-Oct-21 11:42",
            "epoch_date_close_approach": 1287661320000,
            "relative_velocity": {
                "kilometers_per_second": "7.6421721668",
                "kilometers_per_hour": "27511.819800404",
                "miles_per_hour": "17094.7749198677"
            },
            "miss_distance": {
                "astronomical": "0.1969954437",
                "lunar": "76.6312275993",
                "kilometers": "29470098.777224919",
                "miles": "18311870.2474611222"
            },
            "orbiting_body": "Earth"
        }
    ],
    "orbital_data": {
        "orbit_id": "7",
        "orbit_determination_date": "2017-04-06 08:56:00",
        "first_observation_date": "2010-11-01",
        "last_observation_date": "2010-11-12",
        "data_arc_in_days": 11,
        "observations_used": 16,
        "orbit_uncertainty": "9",
        "minimum_orbit_intersection": ".184157",
        "jupiter_tisserand_invariant": "4.940",
        "epoch_osculation": "2455504.5",
        "eccentricity": ".1189071874945549",
        "semi_major_axis": "1.308277349515748",
        "inclination": "14.6887441067475",
        "ascending_node_longitude": "213.5053404498028",
        "orbital_period": "546.5729826419722",
        "perihelion_distance": "1.152713769422",
        "perihelion_argument": "135.4428376340555",
        "aphelion_distance": "1.463840929609497",
        "perihelion_time": "2455440.671925263690",
        "mean_anomaly": "42.0403269733572",
        "mean_motion": ".6586494602420091",
        "equinox": "J2000",
        "orbit_class": {
            "orbit_class_type": "AMO",
            "orbit_class_description": "Near-Earth asteroid orbits similar to that of 1221 Amor",
            "orbit_class_range": "1.017 AU < q (perihelion) < 1.3 AU"
        }
    },
    "is_sentry_object": false
}